CCSDS_OMM_VERS,COMMENT,CREATION_DATE,ORIGINATOR,OBJECT_NAME,OBJECT_ID,CENTER_NAME,REF_FRAME,TIME_SYSTEM,MEAN_ELEMENT_THEORY,EPOCH,MEAN_MOTION,ECCENTRICITY,INCLINATION,RA_OF_ASC_NODE,ARG_OF_PERICENTER,MEAN_ANOMALY,EPHEMERIS_TYPE,CLASSIFICATION_TYPE,NORAD_CAT_ID,ELEMENT_SET_NO,REV_AT_EPOCH,BSTAR,MEAN_MOTION_DOT,MEAN_MOTION_DDOT,SEMIMAJOR_AXIS,PERIOD,APOAPSIS,PERIAPSIS,OBJECT_TYPE,RCS_SIZE,COUNTRY_CODE,LAUNCH_DATE,SITE,DECAY_DATE,FILE,GP_ID,TLE_LINE0,TLE_LINE1,TLE_LINE2
"2.0","GENERATED VIA SPACE-TRACK.ORG API","2020-11-29T06:46:09","18 SPCS","BRO-1","2019-054A","EARTH","TEME","UTC","SGP4","2020-11-28T22:54:04.295232","15.08639970","0.00117570","45.0190","138.0346","4.7368","132.8115","0","U","44495","999","7061","0.00003514200000","0.00000311","0.0000000000000","6918.491","95.450","548.490","532.222","PAYLOAD","SMALL","FR","2019-08-19","RLLC","","2893073","166544680","0 BRO-1","1 44495U 19054A   20333.95421638  .00000311  00000-0  35142-4 0  9998","2 44495  45.0190 138.0346 0011757   4.7368 132.8115 15.08639970 70614"
"2.0","GENERATED VIA SPACE-TRACK.ORG API","2020-11-29T14:56:10","18 SPCS","BRO-1","2019-054A","EARTH","TEME","UTC","SGP4","2020-11-29T11:08:31.454016","15.08640677","0.00117130","45.0195","135.3304","7.5105","22.9633","0","U","44495","999","7069","0.00003627800000","0.00000329","0.0000000000000","6918.489","95.450","548.458","532.251","PAYLOAD","SMALL","FR","2019-08-19","RLLC","","2893520","166554656","0 BRO-1","1 44495U 19054A   20334.46425294  .00000329  00000-0  36278-4 0  9997","2 44495  45.0195 135.3304 0011713   7.5105  22.9633 15.08640677 70693"
"2.0","GENERATED VIA SPACE-TRACK.ORG API","2020-11-29T22:36:10","18 SPCS","BRO-1","2019-054A","EARTH","TEME","UTC","SGP4","2020-11-29T19:32:59.663616","15.08641574","0.00117950","45.0186","133.4729","9.4737","125.6288","0","U","44495","999","7074","0.00004284900000","0.00000433","0.0000000000000","6918.486","95.450","548.512","532.191","PAYLOAD","SMALL","FR","2019-08-19","RLLC","","2893950","166586169","0 BRO-1","1 44495U 19054A   20334.81457944  .00000433  00000-0  42849-4 0  9990","2 44495  45.0186 133.4729 0011795   9.4737 125.6288 15.08641574 70745"
"2.0","GENERATED VIA SPACE-TRACK.ORG API","2020-11-30T06:46:11","18 SPCS","BRO-1","2019-054A","EARTH","TEME","UTC","SGP4","2020-11-29T21:13:14.188800","15.08641949","0.00117620","45.0182","133.1039","10.0189","143.5496","0","U","44495","999","7075","0.00004607000000","0.00000485","0.0000000000000","6918.485","95.450","548.488","532.213","PAYLOAD","SMALL","FR","2019-08-19","RLLC","","2894342","166616426","0 BRO-1","1 44495U 19054A   20334.88419200  .00000485  00000-0  46070-4 0  9997","2 44495  45.0182 133.1039 0011762  10.0189 143.5496 15.08641949 70752"
"2.0","GENERATED VIA SPACE-TRACK.ORG API","2020-11-30T14:36:11","18 SPCS","BRO-1","2019-054A","EARTH","TEME","UTC","SGP4","2020-11-30T11:16:37.579296","15.08643927","0.00117170","45.0181","129.9984","13.4148","84.3799","0","U","44495","999","7084","0.00005932600000","0.00000696","0.0000000000000","6918.479","95.449","548.451","532.238","PAYLOAD","SMALL","FR","2019-08-19","RLLC","","2894723","166625578","0 BRO-1","1 44495U 19054A   20335.46987939  .00000696  00000-0  59326-4 0  9993","2 44495  45.0181 129.9984 0011717  13.4148  84.3799 15.08643927 70841"
"2.0","GENERATED VIA SPACE-TRACK.ORG API","2020-11-30T22:26:10","18 SPCS","BRO-1","2019-054A","EARTH","TEME","UTC","SGP4","2020-11-30T19:23:56.728608","15.08644980","0.00117630","45.0176","128.2041","15.3096","122.3638","0","U","44495","999","7089","0.00006556100000","0.00000795","0.0000000000000","6918.476","95.449","548.479","532.203","PAYLOAD","SMALL","FR","2019-08-19","RLLC","","2895118","166653122","0 BRO-1","1 44495U 19054A   20335.80829547  .00000795  00000-0  65561-4 0  9999","2 44495  45.0176 128.2041 0011763  15.3096 122.3638 15.08644980 70895"
"2.0","GENERATED VIA SPACE-TRACK.ORG API","2020-12-01T06:46:09","18 SPCS","BRO-1","2019-054A","EARTH","TEME","UTC","SGP4","2020-12-01T03:29:17.413152","15.08645696","0.00117960","45.0178","126.4173","17.2174","152.8802","0","U","44495","999","7094","0.00006573000000","0.00000798","0.0000000000000","6918.474","95.449","548.500","532.178","PAYLOAD","SMALL","FR","2019-08-19","RLLC","","2895319","166678964","0 BRO-1","1 44495U 19054A   20336.14534043  .00000798  00000-0  65730-4 0  9992","2 44495  45.0178 126.4173 0011796  17.2174 152.8802 15.08645696 70949"
"2.0","GENERATED VIA SPACE-TRACK.ORG API","2020-12-01T14:36:09","18 SPCS","BRO-1","2019-054A","EARTH","TEME","UTC","SGP4","2020-12-01T11:07:30.944640","15.08646962","0.00116280","45.0178","124.7302","19.0290","81.1090","0","U","44495","999","7099","0.00007242200000","0.00000905","0.0000000000000","6918.470","95.449","548.380","532.290","PAYLOAD","SMALL","FR","2019-08-19","RLLC","","2895510","166683062","0 BRO-1","1 44495U 19054A   20336.46355260  .00000905  00000-0  72422-4 0  9995","2 44495  45.0178 124.7302 0011628  19.0290  81.1090 15.08646962 70992"
"2.0","GENERATED VIA SPACE-TRACK.ORG API","2020-12-01T22:36:10","18 SPCS","BRO-1","2019-054A","EARTH","TEME","UTC","SGP4","2020-12-01T15:44:45.267072","15.08646969","0.00116790","45.0176","123.7093","20.1971","46.6576","0","U","44495","999","7102","0.00006854100000","0.00000843","0.0000000000000","6918.470","95.449","548.415","532.255","PAYLOAD","SMALL","FR","2019-08-19","RLLC","","2895746","166709034","0 BRO-1","1 44495U 19054A   20336.65607948  .00000843  00000-0  68541-4 0  9997","2 44495  45.0176 123.7093 0011679  20.1971  46.6576 15.08646969 71028"
"2.0","GENERATED VIA SPACE-TRACK.ORG API","2020-12-02T04:55:40","18 SPCS","BRO-1","2019-054A","EARTH","TEME","UTC","SGP4","2020-12-01T20:47:00.532032","15.08647704","0.00117740","45.0174","122.5961","21.5050","106.5167","0","U","44495","999","7105","0.00007192500000","0.00000897","0.0000000000000","6918.468","95.449","548.479","532.187","PAYLOAD","SMALL","FR","2019-08-19","RLLC","","2895815","166730299","0 BRO-1","1 44495U 19054A   20336.86597838  .00000897  00000-0  71925-4 0  9995","2 44495  45.0174 122.5961 0011774  21.5050 106.5167 15.08647704 71059"
"2.0","GENERATED VIA SPACE-TRACK.ORG API","2020-12-02T18:56:12","18 SPCS","BRO-1","2019-054A","EARTH","TEME","UTC","SGP4","2020-12-02T03:19:23.311200","15.08647853","0.00117380","45.0177","121.1519","22.8826","146.5733","0","U","44495","999","7109","0.00006635000000","0.00000808","0.0000000000000","6918.467","95.449","548.453","532.211","PAYLOAD","SMALL","FR","2019-08-19","RLLC","","2895939","166734937","0 BRO-1","1 44495U 19054A   20337.13846425  .00000808  00000-0  66350-4 0  9993","2 44495  45.0177 121.1519 0011738  22.8826 146.5733 15.08647853 71093"
"2.0","GENERATED VIA SPACE-TRACK.ORG API","2020-12-02T18:56:12","18 SPCS","BRO-1","2019-054A","EARTH","TEME","UTC","SGP4","2020-12-02T10:58:14.710080","15.08648583","0.00115120","45.0179","119.4627","24.8836","76.9958","0","U","44495","999","7114","0.00006750500000","0.00000826","0.0000000000000","6918.465","95.449","548.295","532.365","PAYLOAD","SMALL","FR","2019-08-19","RLLC","","2896121","166738918","0 BRO-1","1 44495U 19054A   20337.45711470  .00000826  00000-0  67505-4 0  9992","2 44495  45.0179 119.4627 0011512  24.8836  76.9958 15.08648583 71140"
"2.0","GENERATED VIA SPACE-TRACK.ORG API","2020-12-02T19:24:44","18 SPCS","BRO-1","2019-054A","EARTH","TEME","UTC","SGP4","2020-12-02T10:58:14.710080","15.08648583","0.00115120","45.0179","119.4627","24.8836","76.9958","0","U","44495","999","7114","0.00006750500000","0.00000826","0.0000000000000","6918.465","95.449","548.295","532.365","PAYLOAD","SMALL","FR","2019-08-19","RLLC","","2896233","166759388","0 BRO-1","1 44495U 19054A   20337.45711470  .00000826  00000-0  67505-4 0  9992","2 44495  45.0179 119.4627 0011512  24.8836  76.9958 15.08648583 71140"
"2.0","GENERATED VIA SPACE-TRACK.ORG API","2020-12-02T22:36:09","18 SPCS","BRO-1","2019-054A","EARTH","TEME","UTC","SGP4","2020-12-02T18:56:36.216384","15.08648043","0.00114550","45.0172","117.7012","26.8163","81.1100","0","U","44495","999","7119","0.00005509200000","0.00000629","0.0000000000000","6918.467","95.449","548.257","532.407","PAYLOAD","SMALL","FR","2019-08-19","RLLC","","2896322","166764011","0 BRO-1","1 44495U 19054A   20337.78930806  .00000629  00000-0  55092-4 0  9993","2 44495  45.0172 117.7012 0011455  26.8163  81.1100 15.08648043 71196"
"2.0","GENERATED VIA SPACE-TRACK.ORG API","2020-12-03T03:02:41","18 SPCS","BRO-1","2019-054A","EARTH","TEME","UTC","SGP4","2020-12-02T18:56:36.216384","15.08648043","0.00114550","45.0172","117.7012","26.8163","81.1100","0","U","44495","999","7119","0.00005509200000","0.00000629","0.0000000000000","6918.467","95.449","548.257","532.407","PAYLOAD","SMALL","FR","2019-08-19","RLLC","","2896409","166785968","0 BRO-1","1 44495U 19054A   20337.78930806  .00000629  00000-0  55092-4 0  9993","2 44495  45.0172 117.7012 0011455  26.8163  81.1100 15.08648043 71196"
"2.0","GENERATED VIA SPACE-TRACK.ORG API","2020-12-03T06:56:09","18 SPCS","BRO-1","2019-054A","EARTH","TEME","UTC","SGP4","2020-12-03T03:09:37.056960","15.08647572","0.00113840","45.0178","115.8868","28.3672","140.9386","0","U","44495","999","7124","0.00004181800000","0.00000417","0.0000000000000","6918.468","95.449","548.209","532.457","PAYLOAD","SMALL","FR","2019-08-19","RLLC","","2896555","166791007","0 BRO-1","1 44495U 19054A   20338.13167890  .00000417  00000-0  41818-4 0  9994","2 44495  45.0178 115.8868 0011384  28.3672 140.9386 15.08647572 71245"
"2.0","GENERATED VIA SPACE-TRACK.ORG API","2020-12-03T13:16:09","18 SPCS","BRO-1","2019-054A","EARTH","TEME","UTC","SGP4","2020-12-03T10:49:07.910400","15.08647806","0.00112260","45.0178","114.1950","30.3128","73.8975","0","U","44495","999","7129","0.00003949400000","0.00000380","0.0000000000000","6918.467","95.449","548.099","532.566","PAYLOAD","SMALL","FR","2019-08-19","RLLC","","2896771","166795415","0 BRO-1","1 44495U 19054A   20338.45078600  .00000380  00000-0  39494-4 0  9995","2 44495  45.0178 114.1950 0011226  30.3128  73.8975 15.08647806 71296"
